SHENZHOU-15             
1 54379U 22162A   22362.10797454  .00018824  00000+0  23012-3 0  9996
2 54379  41.4757 118.4444 0005326 229.7968 124.5392 15.59954315 95077
COSMOS 2565             
1 54381U 22163A   22362.95032673 -.00000158  00000+0 -59800-4 0  9996
2 54381  67.1561 304.8449 0006798 264.8284  95.2020 13.96673269  3941
SL-4 R/B                
1 54382U 22163B   22362.84179934  .00113132  69706-5  55083-3 0  9994
2 54382  67.1321 292.5692 0440506  66.3546 298.3187 15.08974042  4213
2022-163C               
1 54383U 22163C   22362.86933420 -.00000007  00000+0  48503-4 0  9998
2 54383  67.1428 304.9628 0011781 311.2389  48.7680 13.97327538  3622
1998-067UL              
1 54534U 98067UL  22361.45237145  .00055002  00000+0  87860-3 0  9999
2 54534  51.6411  98.8935 0004712 223.0689 136.9932 15.52625226  3953
1998-067UM              
1 54535U 98067UM  22362.56677481  .00053848  00000+0  84747-3 0  9991
2 54535  51.6425  93.3183 0004446 232.3262 254.1876 15.53048002  4120
1998-067UN              
1 54536U 98067UN  22362.82143612  .00041955  00000+0  67497-3 0  9994
2 54536  51.6431  92.0950 0005345 222.6651 227.1274 15.52543529  4124
1998-067UP              
1 54537U 98067UP  22362.56843764  .00046955  00000+0  74782-3 0  9991
2 54537  51.6430  93.3249 0004728 231.7738 255.1297 15.52776450  4127
2022-164A               
1 54588U 22164A   22362.91454931  .00000680  00000+0  20916-3 0  9990
2 54588  98.3550  29.9258 0009112 207.5376 152.5302 14.44553159  3169
KZ-11 R/B               
1 54589U 22164B   22362.79570562  .00020426  22964-5  22858-3 0  9992
2 54589  98.3683  32.1400 0378791  32.4907 329.9028 15.08214271  3287
2022-165A               
1 54640U 22165A   22362.90873683  .00000496  00000+0  11833-3 0  9991
2 54640  98.1188 300.9506 0001084  90.8039 269.3292 14.57771982  2940
2022-165B               
1 54641U 22165B   22362.96013433  .00000523  00000+0  10496-3 0  9992
2 54641  98.0303 300.8764 0033548 237.3523 122.4436 14.65369744  2958
ONEWEB-0527             
1 54642U 22166A   22362.77342087  .00002710  00000+0  26971-3 0  9998
2 54642  86.5177 149.5806 0009073 161.9203 198.2349 14.91226064  3274
ONEWEB-0528             
1 54643U 22166B   22362.77365167  .00002809  00000+0  27983-3 0  9996
2 54643  86.5190 149.5840 0009013 162.5607 197.5931 14.91210528  3274
ONEWEB-0539             
1 54644U 22166C   22362.77002757  .00000924  00000+0  89402-4 0  9991
2 54644  86.5198 149.5792 0010333 157.8694 202.2982 14.91470991  3271
ONEWEB-0540             
1 54645U 22166D   22362.77511598  .00001689  00000+0  16749-3 0  9992
2 54645  86.5158 149.5760 0008828 164.9798 195.1694 14.91105502  3254
ONEWEB-0542             
1 54646U 22166E   22362.15434589 -.00001716  00000+0 -17066-3 0  9995
2 54646  86.5179 149.8390 0013465 172.7022 187.4405 14.92381122  3169
ONEWEB-0545             
1 54647U 22166F   22362.77437688  .00002801  00000+0  27936-3 0  9998
2 54647  86.5158 149.5764 0008915 163.9187 196.2326 14.91155410  3255
ONEWEB-0580             
1 54648U 22166G   22362.69421804  .00002971  00000+0  28895-3 0  9996
2 54648  86.5165 149.6018 0013318 168.3632 191.7907 14.92143647  3248
ONEWEB-0582             
1 54649U 22166H   22362.76775470  .00002808  00000+0  27651-3 0  9994
2 54649  86.5172 149.5739 0011181 161.4314 198.7324 14.91654408  3255
ONEWEB-0583             
1 54650U 22166J   22362.36325951 -.00003417  00000+0 -34213-3 0  9998
2 54650  86.5178 149.7539 0011775 162.8329 197.3300 14.91792186  3191
ONEWEB-0584             
1 54651U 22166K   22362.76665435  .00002829  00000+0  27798-3 0  9991
2 54651  86.5172 149.5734 0011499 161.7830 198.3812 14.91740618  3258
ONEWEB-0585             
1 54652U 22166L   22362.77035000  .00008933  00000+0  88926-3 0  9994
2 54652  86.5185 149.5772 0010343 158.4694 201.6971 14.91484840  3259
ONEWEB-0586             
1 54653U 22166M   22361.90465578  .00002625  00000+0  26312-3 0  9999
2 54653  86.5197 149.9733 0008238 171.9489 188.1872 14.90938323  3120
ONEWEB-0587             
1 54654U 22166N   22362.76847129  .00003954  00000+0  39108-3 0  9994
2 54654  86.5185 149.5816 0010929 161.0702 199.0934 14.91594962  3256
ONEWEB-0589             
1 54655U 22166P   22362.75847244  .00001953  00000+0  18791-3 0  9994
2 54655  86.5170 149.5713 0013510 170.5755 189.5729 14.92354048  3255
ONEWEB-0590             
1 54656U 22166Q   22362.69249356  .00003027  00000+0  29345-3 0  9999
2 54656  86.5163 149.6003 0013305 169.5121 190.6387 14.92275045  3249
ONEWEB-0591             
1 54657U 22166R   22362.75996420  .00003884  00000+0  37765-3 0  9994
2 54657  86.5194 149.5754 0013265 168.9191 191.2332 14.92244781  3252
ONEWEB-0592             
1 54658U 22166S   22362.91667824 -.00357705  00000+0 -52310-1 0  9993
2 54658  86.4480 149.5173 0008177 166.8445  78.2303 14.77981741  1303
ONEWEB-0593             
1 54659U 22166T   22362.36487932  .00003444  00000+0  33950-3 0  9990
2 54659  86.5185 149.7590 0011218 162.9208 197.2400 14.91684554  3193
ONEWEB-0594             
1 54660U 22166U   22362.69554481  .00002961  00000+0  28876-3 0  9996
2 54660  86.5179 149.6042 0012776 165.7253 194.4338 14.92043591  3246
ONEWEB-0595             
1 54661U 22166V   22362.36457656  .00003031  00000+0  29830-3 0  9997
2 54661  86.5186 149.7590 0011345 163.0281 197.1329 14.91705362  3191
ONEWEB-0596             
1 54662U 22166W   22362.76908614  .00002788  00000+0  27524-3 0  9993
2 54662  86.5171 149.5745 0010741 160.7045 199.4591 14.91554284  3255
ONEWEB-0597             
1 54663U 22166X   22362.76062549  .00002997  00000+0  29111-3 0  9998
2 54663  86.5162 149.5708 0013222 167.8203 192.3347 14.92195908  3252
ONEWEB-0600             
1 54664U 22166Y   22362.35636460  .00003080  00000+0  29818-3 0  9991
2 54664  86.5167 149.7492 0013412 171.6503 188.4950 14.92340969  3195
ONEWEB-0601             
1 54665U 22166Z   22362.76087141  .00002862  00000+0  27808-3 0  9997
2 54665  86.5192 149.5755 0013175 167.4386 192.7173 14.92177035  3256
ONEWEB-0602             
1 54666U 22166AA  22362.69446116  .00002936  00000+0  28572-3 0  9992
2 54666  86.5190 149.6048 0013042 166.8453 193.3117 14.92126579  3243
ONEWEB-0603             
1 54667U 22166AB  22362.91667824 -.01013007  00000+0 -15636+0 0  9996
2 54667  86.5455 149.5631 0008913 167.3829  44.8292 14.76248726  1309
ONEWEB-0604             
1 54668U 22166AC  22362.91667824 -.00895505  00000+0 -12917+0 0  9996
2 54668  86.4498 149.5258 0008440 166.1779 100.5273 14.79231194  1300
ONEWEB-0605             
1 54669U 22166AD  22362.91667824 -.01015153  00000+0 -15850+0 0  9990
2 54669  86.5481 149.5694 0008048 169.5066  30.0600 14.75773478  1301
ONEWEB-0606             
1 54670U 22166AE  22362.91667824 -.00892751  00000+0 -12651+0 0  9994
2 54670  86.4545 149.5241 0008702 164.7412 121.8508 14.79964101  1305
ONEWEB-0607             
1 54671U 22166AF  22362.91667824 -.00988114  00000+0 -13824+0 0  9997
2 54671  86.5548 149.5417 0008802 166.0867 142.4998 14.80801595  1306
ONEWEB-0608             
1 54672U 22166AG  22362.91667824 -.00887589  00000+0 -11600+0 0  9992
2 54672  86.5735 149.5363 0012537 165.3380 225.4881 14.83271359  1302
ONEWEB-0610             
1 54673U 22166AH  22362.91667824 -.00844071  00000+0 -11639+0 0  9994
2 54673  86.4579 149.5147 0009351 164.1251 136.9484 14.80945785  1305
ONEWEB-0611             
1 54674U 22166AJ  22362.91667824 -.00898072  00000+0 -12148+0 0  9991
2 54674  86.4632 149.5140 0011557 161.8709 193.7855 14.81890454  1308
ONEWEB-0612             
1 54675U 22166AK  22362.91667824 -.00912145  00000+0 -13337+0 0  9991
2 54675  86.4500 149.5265 0008102 168.0626  87.8227 14.78715729  1303
ONEWEB-0615             
1 54676U 22166AL  22362.91667824 -.00904662  00000+0 -12440+0 0  9991
2 54676  86.4595 149.5172 0010597 160.7378 171.6277 14.81238259  1308
ONEWEB-0655             
1 54677U 22166AM  22362.91667824 -.00875067  00000+0 -11962+0 0  9996
2 54677  86.4549 149.5091 0010312 162.5537 166.3105 14.81395278  1306
ONEWEB-0659             
1 54678U 22166AN  22362.76869376  .00002795  00000+0  27574-3 0  9994
2 54678  86.5173 149.5746 0010848 160.6912 199.4729 14.91584894  3258
ONEWEB-0685             
1 54679U 22166AP  22363.00001157 -.00910030  00000+0 -13406+0 0  9995
2 54679  86.4516 149.4913 0008253 169.3508 155.8110 14.78392021  3724
ONEWEB-0712             
1 54680U 22166AQ  22362.69469169  .00003030  00000+0  29500-3 0  9999
2 54680  86.5189 149.6048 0012975 166.5450 193.6127 14.92113497  3244
ONEWEB-0714             
1 54681U 22166AR  22362.75897589  .00003064  00000+0  29682-3 0  9996
2 54681  86.5191 149.5737 0013385 169.7961 190.3542 14.92319757  3253
2022-167A               
1 54682U 22167A   22362.84299755  .00009356  00000+0  59474-3 0  9991
2 54682  97.5356 137.4895 0013934 194.2437 313.6717 15.08963194  2959
2022-167B               
1 54683U 22167B   22362.86030113  .00041931  00000+0  46743-3 0  9995
2 54683  97.5880 138.6480 0201155 255.1045 102.7949 15.41793414  2992
CAS-5A (FO-118)         
1 54684U 22167C   22362.84214128  .00007171  00000+0  45639-3 0  9995
2 54684  97.5388 137.4979 0014182 196.1506 313.1110 15.09004146  2948
2022-167D               
1 54685U 22167D   22362.83378365  .00004673  00000+0  29448-3 0  9993
2 54685  97.5434 137.5202 0013138 208.7338 297.9592 15.09563355  2949
2022-167E               
1 54686U 22167E   22362.83382941  .00004635  00000+0  29214-3 0  9998
2 54686  97.5391 137.5089 0012767 209.3333 297.3585 15.09559074  2943
2022-167F               
1 54687U 22167F   22362.83255207  .00008011  00000+0  50014-3 0  9997
2 54687  97.5382 137.5074 0013442 209.4434 295.3590 15.09681079  2947
2022-167G               
1 54688U 22167G   22362.83119861  .00008186  00000+0  50923-3 0  9995
2 54688  97.5351 137.5012 0013889 210.1364 293.7911 15.09798428  2948
